{"type": "FeatureCollection", "features": [ {"type": "Feature", "properties": {"norad_id": 46992, "name": "FENGYUN 1C DEB", "group": "fengyun-1c-debris", "lat": 58.916526978363116, "lon": -32.84488687651297, "alt_km": 872.2341960531958, "timestamp": "2025-12-21T16:47:55.029039+00:00", "meta": {"OBJECT_NAME": "FENGYUN 1C DEB", "OBJECT_ID": "1999-025EZS", "EPOCH": "2025-12-19T18:13:25.191840", "MEAN_MOTION": 14.00708006, "ECCENTRICITY": 0.00721425, "INCLINATION": 98.901, "RA_OF_ASC_NODE": 340.3322, "ARG_OF_PERICENTER": 141.1765, "MEAN_ANOMALY": 219.4614, "EPHEMERIS_TYPE": 0, "CLASSIFICATION_TYPE": "U", "NORAD_CAT_ID": 46992, "ELEMENT_SET_NO": 999, "REV_AT_EPOCH": 61055, "BSTAR": 0.00043037595, "MEAN_MOTION_DOT": 6.13e-06, "MEAN_MOTION_DDOT": 0}, "tle": {"line1": "1 46992U 99025EZS 25353.75931935  .00000613  00000+0  43038-3 0  9995", "line2": "2 46992  98.9010 340.3322 0072142 141.1765 219.4614 14.00708006610557"}}, "geometry": {"type": "Point", "coordinates": [-32.84488687651297, 58.916526978363116]}}, {"type": "Feature", "properties": {"norad_id": 46993, "name": "FENGYUN 1C DEB", "group": "fengyun-1c-debris", "lat": -29.137660425941466, "lon": 118.22676539325381, "alt_km": 893.7932683995423, "timestamp": "2025-12-21T16:47:55.029049+00:00", "meta": {"OBJECT_NAME": "FENGYUN 1C DEB", "OBJECT_ID": "1999-025EZT", "EPOCH": "2025-12-18T13:48:38.255328", "MEAN_MOTION": 13.69154142, "ECCENTRICITY": 0.02625123, "INCLINATION": 98.7233, "RA_OF_ASC_NODE": 110.4847, "ARG_OF_PERICENTER": 283.8917, "MEAN_ANOMALY": 132.0062, "EPHEMERIS_TYPE": 0, "CLASSIFICATION_TYPE": "U", "NORAD_CAT_ID": 46993, "ELEMENT_SET_NO": 999, "REV_AT_EPOCH": 60337, "BSTAR": 0.00040493614, "MEAN_MOTION_DOT": 4.06e-06, "MEAN_MOTION_DDOT": 0}, "tle": {"line1": "1 46993U 99025EZT 25352.57544277  .00000406  00000+0  40494-3 0  9997", "line2": "2 46993  98.7233 110.4847 0262512 283.8917 132.0062 13.69154142603375"}}, "geometry": {"type": "Point", "coordinates": [118.22676539325381, -29.137660425941466]}}, {"type": "Feature", "properties": {"norad_id": 46995, "name": "FENGYUN 1C DEB", "group": "fengyun-1c-debris", "lat": 23.39094547859968, "lon": -99.2679956828537, "alt_km": 874.5123091057258, "timestamp": "2025-12-21T16:47:55.029059+00:00", "meta": {"OBJECT_NAME": "FENGYUN 1C DEB", "OBJECT_ID": "1999-025EZV", "EPOCH": "2025-12-18T04:55:40.819584", "MEAN_MOTION": 13.86383578, "ECCENTRICITY": 0.01891743, "INCLINATION": 98.5952, "RA_OF_ASC_NODE": 73.7691, "ARG_OF_PERICENTER": 103.3728, "MEAN_ANOMALY": 258.8595, "EPHEMERIS_TYPE": 0, "CLASSIFICATION_TYPE": "U", "NORAD_CAT_ID": 46995, "ELEMENT_SET_NO": 999, "REV_AT_EPOCH": 60544, "BSTAR": 0.001968191, "MEAN_MOTION_DOT": 2.586e-05, "MEAN_MOTION_DDOT": 0}, "tle": {"line1": "1 46995U 99025EZV 25352.20533356  .00002586  00000+0  19682-2 0  9990", "line2": "2 46995  98.5952  73.7691 0189174 103.3728 258.8595 13.86383578605443"}}, "geometry": {"type": "Point", "coordinates": [-99.2679956828537, 23.39094547859968]}}, {"type": "Feature", "properties": {"norad_id": 46997, "name": "FENGYUN 1C DEB", "group": "fengyun-1c-debris", "lat": 18.166124415468122, "lon": 33.02851890215081, "alt_km": 792.1425819286806, "timestamp": "2025-12-21T16:47:55.029069+00:00", "meta": {"OBJECT_NAME": "FENGYUN 1C DEB", "OBJECT_ID": "1999-025EZX", "EPOCH": "2025-12-14T20:44:05.032032", "MEAN_MOTION": 14.28011803, "ECCENTRICITY": 0.00246638, "INCLINATION": 98.5587, "RA_OF_ASC_NODE": 29.1623, "ARG_OF_PERICENTER": 329.7037, "MEAN_ANOMALY": 205.3871, "EPHEMERIS_TYPE": 0, "CLASSIFICATION_TYPE": "U", "NORAD_CAT_ID": 46997, "ELEMENT_SET_NO": 999, "REV_AT_EPOCH": 62481, "BSTAR": 0.00094694744, "MEAN_MOTION_DOT": 2.314e-05, "MEAN_MOTION_DDOT": 0}, "tle": {"line1": "1 46997U 99025EZX 25348.86394713  .00002314  00000+0  94695-3 0  9998", "line2": "2 46997  98.5587  29.1623 0024663 329.7037 205.3871 14.28011803624819"}}, "geometry": {"type": "Point", "coordinates": [33.02851890215081, 18.166124415468122]}}, {"type": "Feature", "properties": {"norad_id": 47001, "name": "FENGYUN 1C DEB", "group": "fengyun-1c-debris", "lat": 19.497126935942724, "lon": 51.15412411786425, "alt_km": 726.950015423402, "timestamp": "2025-12-21T16:47:55.029079+00:00", "meta": {"OBJECT_NAME": "FENGYUN 1C DEB", "OBJECT_ID": "1999-025FAB", "EPOCH": "2025-12-20T10:39:37.820736", "MEAN_MOTION": 14.38526767, "ECCENTRICITY": 0.00511554, "INCLINATION": 99.3048, "RA_OF_ASC_NODE": 53.1219, "ARG_OF_PERICENTER": 26.8818, "MEAN_ANOMALY": 333.5001, "EPHEMERIS_TYPE": 0, "CLASSIFICATION_TYPE": "U", "NORAD_CAT_ID": 47001, "ELEMENT_SET_NO": 999, "REV_AT_EPOCH": 74025, "BSTAR": 0.00095782208, "MEAN_MOTION_DOT": 2.923e-05, "MEAN_MOTION_DDOT": 0}, "tle": {"line1": "1 47001U 99025FAB 25354.44418774  .00002923  00000+0  95782-3 0  9994", "line2": "2 47001  99.3048  53.1219 0051155  26.8818 333.5001 14.38526767740250"}}, "geometry": {"type": "Point", "coordinates": [51.15412411786425, 19.497126935942724]}}, {"type": "Feature", "properties": {"norad_id": 47005, "name": "FENGYUN 1C DEB", "group": "fengyun-1c-debris", "lat": -63.634355725528025, "lon": 105.20858833006146, "alt_km": 850.9533143071012, "timestamp": "2025-12-21T16:47:55.029089+00:00", "meta": {"OBJECT_NAME": "FENGYUN 1C DEB", "OBJECT_ID": "1999-025FAF", "EPOCH": "2025-12-21T12:05:43.680192", "MEAN_MOTION": 14.11117395, "ECCENTRICITY": 0.0065589, "INCLINATION": 99.6008, "RA_OF_ASC_NODE": 85.032, "ARG_OF_PERICENTER": 219.2127, "MEAN_ANOMALY": 159.8182, "EPHEMERIS_TYPE": 0, "CLASSIFICATION_TYPE": "U", "NORAD_CAT_ID": 47005, "ELEMENT_SET_NO": 999, "REV_AT_EPOCH": 82891, "BSTAR": 0.0018102, "MEAN_MOTION_DOT": 3.277e-05, "MEAN_MOTION_DDOT": 0}, "tle": {"line1": "1 47005U 99025FAF 25355.50397778  .00003277  00000+0  18102-2 0  9999", "line2": "2 47005  99.6008  85.0320 0065589 219.2127 159.8182 14.11117395828910"}}, "geometry": {"type": "Point", "coordinates": [105.20858833006146, -63.634355725528025]}}, {"type": "Feature", "properties": {"norad_id": 47007, "name": "FENGYUN 1C DEB", "group": "fengyun-1c-debris", "lat": -23.458360932848525, "lon": -139.67355909031147, "alt_km": 800.2013140101326, "timestamp": "2025-12-21T16:47:55.029099+00:00", "meta": {"OBJECT_NAME": "FENGYUN 1C DEB", "OBJECT_ID": "1999-025FAH", "EPOCH": "2025-12-16T09:44:03.870240", "MEAN_MOTION": 13.97251993, "ECCENTRICITY": 0.02368252, "INCLINATION": 98.2082, "RA_OF_ASC_NODE": 211.9995, "ARG_OF_PERICENTER": 43.4139, "MEAN_ANOMALY": 318.5411, "EPHEMERIS_TYPE": 0, "CLASSIFICATION_TYPE": "U", "NORAD_CAT_ID": 47007, "ELEMENT_SET_NO": 999, "REV_AT_EPOCH": 78900, "BSTAR": 0.0020308596, "MEAN_MOTION_DOT": 3.573e-05, "MEAN_MOTION_DDOT": 0}, "tle": {"line1": "1 47007U 99025FAH 25350.40560035  .00003573  00000+0  20309-2 0  9994", "line2": "2 47007  98.2082 211.9995 0236825  43.4139 318.5411 13.97251993789001"}}, "geometry": {"type": "Point", "coordinates": [-139.67355909031147, -23.458360932848525]}}, {"type": "Feature", "properties": {"norad_id": 47009, "name": "FENGYUN 1C DEB", "group": "fengyun-1c-debris", "lat": 28.89905462671663, "lon": 163.4188212846414, "alt_km": 1091.5536822270906, "timestamp": "2025-12-21T16:47:55.029109+00:00", "meta": {"OBJECT_NAME": "FENGYUN 1C DEB", "OBJECT_ID": "1999-025FAK", "EPOCH": "2025-12-21T05:14:14.201088", "MEAN_MOTION": 13.37315869, "ECCENTRICITY": 0.0351179, "INCLINATION": 98.9317, "RA_OF_ASC_NODE": 338.0153, "ARG_OF_PERICENTER": 238.1062, "MEAN_ANOMALY": 118.5455, "EPHEMERIS_TYPE": 0, "CLASSIFICATION_TYPE": "U", "NORAD_CAT_ID": 47009, "ELEMENT_SET_NO": 999, "REV_AT_EPOCH": 58922, "BSTAR": 0.00028582, "MEAN_MOTION_DOT": 1.74e-06, "MEAN_MOTION_DDOT": 0}, "tle": {"line1": "1 47009U 99025FAK 25355.21821992  .00000174  00000+0  28582-3 0  9998", "line2": "2 47009  98.9317 338.0153 0351179 238.1062 118.5455 13.37315869589221"}}, "geometry": {"type": "Point", "coordinates": [163.4188212846414, 28.89905462671663]}}, {"type": "Feature", "properties": {"norad_id": 47012, "name": "FENGYUN 1C DEB", "group": "fengyun-1c-debris", "lat": 54.387083787419684, "lon": -138.93822830849186, "alt_km": 850.1085897752992, "timestamp": "2025-12-21T16:47:55.029119+00:00", "meta": {"OBJECT_NAME": "FENGYUN 1C DEB", "OBJECT_ID": "1999-025FAN", "EPOCH": "2025-12-05T22:22:36.481152", "MEAN_MOTION": 13.77908149, "ECCENTRICITY": 0.01638485, "INCLINATION": 98.755, "RA_OF_ASC_NODE": 218.9381, "ARG_OF_PERICENTER": 81.7177, "MEAN_ANOMALY": 280.2518, "EPHEMERIS_TYPE": 0, "CLASSIFICATION_TYPE": "U", "NORAD_CAT_ID": 47012, "ELEMENT_SET_NO": 999, "REV_AT_EPOCH": 54479, "BSTAR": 0.00065808903, "MEAN_MOTION_DOT": 6.91e-06, "MEAN_MOTION_DDOT": 0}, "tle": {"line1": "1 47012U 99025FAN 25339.93236668  .00000691  00000+0  65809-3 0  9990", "line2": "2 47012  98.7550 218.9381 0163848  81.7177 280.2518 13.77908149544797"}}, "geometry": {"type": "Point", "coordinates": [-138.93822830849186, 54.387083787419684]}}, {"type": "Feature", "properties": {"norad_id": 47015, "name": "FENGYUN 1C DEB", "group": "fengyun-1c-debris", "lat": -46.919602703852014, "lon": 62.716292610201, "alt_km": 692.5478667087209, "timestamp": "2025-12-21T16:47:55.029149+00:00", "meta": {"OBJECT_NAME": "FENGYUN 1C DEB", "OBJECT_ID": "1999-025FAR", "EPOCH": "2025-12-20T10:20:25.475424", "MEAN_MOTION": 14.87477483, "ECCENTRICITY": 0.01753836, "INCLINATION": 98.7094, "RA_OF_ASC_NODE": 51.8891, "ARG_OF_PERICENTER": 88.0341, "MEAN_ANOMALY": 274.0948, "EPHEMERIS_TYPE": 0, "CLASSIFICATION_TYPE": "U", "NORAD_CAT_ID": 47015, "ELEMENT_SET_NO": 999, "REV_AT_EPOCH": 64496, "BSTAR": 0.00039688494, "MEAN_MOTION_DOT": 4.702e-05, "MEAN_MOTION_DDOT": 0}, "tle": {"line1": "1 47015U 99025FAR 25354.43085041  .00004702  00000+0  39688-3 0  9995", "line2": "2 47015  98.7094  51.8891 0175383  88.0341 274.0948 14.87477483644965"}}, "geometry": {"type": "Point", "coordinates": [62.716292610201, -46.919602703852014]}}]}